start=new Date('2023-04-30T00:00:00.000Z').valueOf();
sats=[{"ARG_OF_PERICENTER":"91.7721","OBJECT_ID":"2021-041AM","EPHEMERIS_TYPE":"0","BSTAR":"0.00005843800000","RCS_SIZE":"LARGE","TLE_LINE1":"1 48588U 21041AM  23119.56011100  .00000589  00000-0  58438-4 0  9995","MEAN_MOTION_DOT":"0.00000589","REF_FRAME":"TEME","FILE":"3896718","OBJECT_TYPE":"PAYLOAD","SEMIMAJOR_AXIS":"6925.399","GP_ID":"230938167","CLASSIFICATION_TYPE":"U","MEAN_ANOMALY":"268.3439","MEAN_MOTION":"15.06383397","RA_OF_ASC_NODE":"143.3807","REV_AT_EPOCH":"10812","MEAN_MOTION_DDOT":"0.0000000000000","INCLINATION":"53.0531","NORAD_CAT_ID":"48588","ECCENTRICITY":"0.00014920","PERIOD":"95.593","SITE":"AFETR","PERIAPSIS":"546.231","CENTER_NAME":"EARTH","LAUNCH_DATE":"2021-05-15","APOAPSIS":"548.298","OBJECT_NAME":"STARLINK-2244","TLE_LINE2":"2 48588  53.0531 143.3807 0001492  91.7721 268.3439 15.06383397108123","TIME_SYSTEM":"UTC","MEAN_ELEMENT_THEORY":"SGP4","EPOCH":"2023-04-29T13:26:33.590400","DECAY_DATE":null,"ELEMENT_SET_NO":"999","COUNTRY_CODE":"US"},{"SEMIMAJOR_AXIS":"6925.209","GP_ID":"230937825","MEAN_MOTION_DOT":"0.00010881","REF_FRAME":"TEME","OBJECT_TYPE":"PAYLOAD","FILE":"3896718","CLASSIFICATION_TYPE":"U","MEAN_ANOMALY":"279.4290","REV_AT_EPOCH":"10812","MEAN_MOTION_DDOT":"0.0000000000000","MEAN_MOTION":"15.06445623","RA_OF_ASC_NODE":"143.4034","INCLINATION":"53.0524","NORAD_CAT_ID":"48589","ARG_OF_PERICENTER":"80.6866","EPHEMERIS_TYPE":"0","OBJECT_ID":"2021-041AN","BSTAR":"0.00074736000000","RCS_SIZE":"LARGE","TLE_LINE1":"1 48589U 21041AN  23119.55639699  .00010881  00000-0  74736-3 0  9998","EPOCH":"2023-04-29T13:21:12.699936","DECAY_DATE":null,"ELEMENT_SET_NO":"999","COUNTRY_CODE":"US","SITE":"AFETR","ECCENTRICITY":"0.00014810","PERIOD":"95.589","PERIAPSIS":"546.048","LAUNCH_DATE":"2021-05-15","CENTER_NAME":"EARTH","MEAN_ELEMENT_THEORY":"SGP4","OBJECT_NAME":"STARLINK-2245","APOAPSIS":"548.099","TLE_LINE2":"2 48589  53.0524 143.4034 0001481  80.6866 279.4290 15.06445623108123","TIME_SYSTEM":"UTC"},{"LAUNCH_DATE":"2021-05-15","CENTER_NAME":"EARTH","MEAN_ELEMENT_THEORY":"SGP4","APOAPSIS":"548.345","OBJECT_NAME":"STARLINK-2248","TIME_SYSTEM":"UTC","TLE_LINE2":"2 48591  53.0523 143.4707 0001733  91.6426 268.4762 15.06422341108074","SITE":"AFETR","ECCENTRICITY":"0.00017330","PERIOD":"95.591","PERIAPSIS":"545.945","ELEMENT_SET_NO":"999","COUNTRY_CODE":"US","EPOCH":"2023-04-29T12:58:37.276608","DECAY_DATE":null,"BSTAR":"0.00078274000000","RCS_SIZE":"LARGE","TLE_LINE1":"1 48591U 21041AQ  23119.54070922  .00011404  00000-0  78274-3 0  9991","ARG_OF_PERICENTER":"91.6426","OBJECT_ID":"2021-041AQ","EPHEMERIS_TYPE":"0","REV_AT_EPOCH":"10807","MEAN_MOTION_DDOT":"0.0000000000000","RA_OF_ASC_NODE":"143.4707","MEAN_MOTION":"15.06422341","INCLINATION":"53.0523","NORAD_CAT_ID":"48591","SEMIMAJOR_AXIS":"6925.280","GP_ID":"230938179","REF_FRAME":"TEME","MEAN_MOTION_DOT":"0.00011404","FILE":"3896718","OBJECT_TYPE":"PAYLOAD","CLASSIFICATION_TYPE":"U","MEAN_ANOMALY":"268.4762"},{"MEAN_ANOMALY":"280.6117","CLASSIFICATION_TYPE":"U","FILE":"3896517","OBJECT_TYPE":"PAYLOAD","REF_FRAME":"TEME","MEAN_MOTION_DOT":"0.00004772","GP_ID":"230927783","SEMIMAJOR_AXIS":"6925.324","NORAD_CAT_ID":"48592","INCLINATION":"53.0526","RA_OF_ASC_NODE":"154.0485","MEAN_MOTION":"15.06407948","MEAN_MOTION_DDOT":"0.0000000000000","REV_AT_EPOCH":"10751","EPHEMERIS_TYPE":"0","OBJECT_ID":"2021-041AR","ARG_OF_PERICENTER":"79.5041","TLE_LINE1":"1 48592U 21041AR  23119.41816578  .00004772  00000-0  33894-3 0  9992","RCS_SIZE":"MEDIUM","BSTAR":"0.00033894000000","DECAY_DATE":null,"EPOCH":"2023-04-29T10:02:09.523392","COUNTRY_CODE":"US","ELEMENT_SET_NO":"999","PERIAPSIS":"546.154","PERIOD":"95.592","ECCENTRICITY":"0.00014950","SITE":"AFETR","TLE_LINE2":"2 48592  53.0526 154.0485 0001495  79.5041 280.6117 15.06407948107516","TIME_SYSTEM":"UTC","APOAPSIS":"548.225","OBJECT_NAME":"STARLINK-2249","MEAN_ELEMENT_THEORY":"SGP4","CENTER_NAME":"EARTH","LAUNCH_DATE":"2021-05-15"},{"DECAY_DATE":null,"EPOCH":"2023-04-29T08:33:17.419968","COUNTRY_CODE":"US","ELEMENT_SET_NO":"999","PERIAPSIS":"546.067","ECCENTRICITY":"0.00015330","PERIOD":"95.590","SITE":"AFETR","OBJECT_NAME":"STARLINK-2250","APOAPSIS":"548.190","TLE_LINE2":"2 48593  53.0526 154.2994 0001533  80.9821 279.1342 15.06427800107500","TIME_SYSTEM":"UTC","MEAN_ELEMENT_THEORY":"SGP4","CENTER_NAME":"EARTH","LAUNCH_DATE":"2021-05-15","CLASSIFICATION_TYPE":"U","MEAN_ANOMALY":"279.1342","MEAN_MOTION_DOT":"0.00012682","REF_FRAME":"TEME","OBJECT_TYPE":"PAYLOAD","FILE":"3896517","SEMIMAJOR_AXIS":"6925.263","GP_ID":"230927533","INCLINATION":"53.0526","NORAD_CAT_ID":"48593","MEAN_MOTION":"15.06427800","RA_OF_ASC_NODE":"154.2994","REV_AT_EPOCH":"10750","MEAN_MOTION_DDOT":"0.0000000000000","EPHEMERIS_TYPE":"0","OBJECT_ID":"2021-041AS","ARG_OF_PERICENTER":"80.9821","TLE_LINE1":"1 48593U 21041AS  23119.35645162  .00012682  00000-0  86810-3 0  9990","BSTAR":"0.00086810000000","RCS_SIZE":"LARGE"},{"MEAN_MOTION":"15.06417994","RA_OF_ASC_NODE":"124.2573","REV_AT_EPOCH":"10838","MEAN_MOTION_DDOT":"0.0000000000000","INCLINATION":"53.0523","NORAD_CAT_ID":"48594","MEAN_MOTION_DOT":"0.00006659","REF_FRAME":"TEME","FILE":"3896719","OBJECT_TYPE":"PAYLOAD","SEMIMAJOR_AXIS":"6925.293","GP_ID":"230938203","CLASSIFICATION_TYPE":"U","MEAN_ANOMALY":"283.8893","BSTAR":"0.00046526000000","RCS_SIZE":"LARGE","TLE_LINE1":"1 48594U 21041AT  23119.38501457  .00006659  00000-0  46526-3 0  9999","ARG_OF_PERICENTER":"76.2252","EPHEMERIS_TYPE":"0","OBJECT_ID":"2021-041AT","ELEMENT_SET_NO":"999","COUNTRY_CODE":"US","EPOCH":"2023-04-29T09:14:25.258848","DECAY_DATE":null,"CENTER_NAME":"EARTH","LAUNCH_DATE":"2021-05-15","APOAPSIS":"548.130","OBJECT_NAME":"STARLINK-2251","TLE_LINE2":"2 48594  53.0523 124.2573 0001403  76.2252 283.8893 15.06417994108383","TIME_SYSTEM":"UTC","MEAN_ELEMENT_THEORY":"SGP4","ECCENTRICITY":"0.00014030","PERIOD":"95.591","SITE":"AFETR","PERIAPSIS":"546.187"},{"RA_OF_ASC_NODE":"153.7852","MEAN_MOTION":"15.06407555","MEAN_MOTION_DDOT":"0.0000000000000","REV_AT_EPOCH":"10879","NORAD_CAT_ID":"48595","INCLINATION":"53.0525","OBJECT_TYPE":"PAYLOAD","FILE":"3896719","MEAN_MOTION_DOT":"0.00004030","REF_FRAME":"TEME","GP_ID":"230937849","SEMIMAJOR_AXIS":"6925.325","MEAN_ANOMALY":"270.4328","CLASSIFICATION_TYPE":"U","RCS_SIZE":"LARGE","BSTAR":"0.00028920000000","TLE_LINE1":"1 48595U 21041AU  23119.47072373  .00004030  00000-0  28920-3 0  9999","ARG_OF_PERICENTER":"89.6850","EPHEMERIS_TYPE":"0","OBJECT_ID":"2021-041AU","ELEMENT_SET_NO":"999","COUNTRY_CODE":"US","EPOCH":"2023-04-29T11:17:50.530272","DECAY_DATE":null,"CENTER_NAME":"EARTH","LAUNCH_DATE":"2021-05-15","TLE_LINE2":"2 48595  53.0525 153.7852 0001645  89.6850 270.4328 15.06407555108795","TIME_SYSTEM":"UTC","OBJECT_NAME":"STARLINK-2252","APOAPSIS":"548.330","MEAN_ELEMENT_THEORY":"SGP4","PERIOD":"95.592","ECCENTRICITY":"0.00016450","SITE":"AFETR","PERIAPSIS":"546.051"},{"RCS_SIZE":"LARGE","BSTAR":"0.00013466000000","TLE_LINE1":"1 48596U 21041AV  23119.55917265  .00001725  00000-0  13466-3 0  9994","ARG_OF_PERICENTER":"83.4242","EPHEMERIS_TYPE":"0","OBJECT_ID":"2021-041AV","MEAN_MOTION_DDOT":"0.0000000000000","REV_AT_EPOCH":"10799","MEAN_MOTION":"15.06409666","RA_OF_ASC_NODE":"153.3897","NORAD_CAT_ID":"48596","INCLINATION":"53.0520","GP_ID":"230937851","SEMIMAJOR_AXIS":"6925.319","OBJECT_TYPE":"PAYLOAD","FILE":"3896719","MEAN_MOTION_DOT":"0.00001725","REF_FRAME":"TEME","MEAN_ANOMALY":"276.6932","CLASSIFICATION_TYPE":"U","LAUNCH_DATE":"2021-05-15","CENTER_NAME":"EARTH","MEAN_ELEMENT_THEORY":"SGP4","TLE_LINE2":"2 48596  53.0520 153.3897 0001631  83.4242 276.6932 15.06409666107993","TIME_SYSTEM":"UTC","APOAPSIS":"548.313","OBJECT_NAME":"STARLINK-2253","SITE":"AFETR","PERIOD":"95.592","ECCENTRICITY":"0.00016310","PERIAPSIS":"546.054","ELEMENT_SET_NO":"999","COUNTRY_CODE":"US","EPOCH":"2023-04-29T13:25:12.516960","DECAY_DATE":null},{"EPOCH":"2023-04-29T08:49:13.110240","DECAY_DATE":null,"ELEMENT_SET_NO":"999","COUNTRY_CODE":"US","PERIOD":"95.592","ECCENTRICITY":"0.00012930","SITE":"AFETR","PERIAPSIS":"546.323","CENTER_NAME":"EARTH","LAUNCH_DATE":"2021-05-15","TLE_LINE2":"2 48597  53.0534 154.2518 0001293  88.6280 271.4857 15.06398407108778","TIME_SYSTEM":"UTC","OBJECT_NAME":"STARLINK-2255","APOAPSIS":"548.114","MEAN_ELEMENT_THEORY":"SGP4","FILE":"3896517","OBJECT_TYPE":"PAYLOAD","REF_FRAME":"TEME","MEAN_MOTION_DOT":"0.00002633","GP_ID":"230928034","SEMIMAJOR_AXIS":"6925.353","MEAN_ANOMALY":"271.4857","CLASSIFICATION_TYPE":"U","RA_OF_ASC_NODE":"154.2518","MEAN_MOTION":"15.06398407","MEAN_MOTION_DDOT":"0.0000000000000","REV_AT_EPOCH":"10877","NORAD_CAT_ID":"48597","INCLINATION":"53.0534","ARG_OF_PERICENTER":"88.6280","OBJECT_ID":"2021-041AW","EPHEMERIS_TYPE":"0","RCS_SIZE":"LARGE","BSTAR":"0.00019560000000","TLE_LINE1":"1 48597U 21041AW  23119.36751285  .00002633  00000-0  19560-3 0  9992"},{"MEAN_ANOMALY":"271.6704","CLASSIFICATION_TYPE":"U","GP_ID":"230937853","SEMIMAJOR_AXIS":"6925.308","OBJECT_TYPE":"PAYLOAD","FILE":"3896719","REF_FRAME":"TEME","MEAN_MOTION_DOT":"0.00010209","NORAD_CAT_ID":"48598","INCLINATION":"53.0521","MEAN_MOTION_DDOT":"0.0000000000000","REV_AT_EPOCH":"10799","MEAN_MOTION":"15.06413158","RA_OF_ASC_NODE":"153.3404","OBJECT_ID":"2021-041AX","EPHEMERIS_TYPE":"0","ARG_OF_PERICENTER":"88.4446","TLE_LINE1":"1 48598U 21041AX  23119.57023589  .00010209  00000-0  70299-3 0  9999","RCS_SIZE":"LARGE","BSTAR":"0.00070299000000","DECAY_DATE":null,"EPOCH":"2023-04-29T13:41:08.380896","COUNTRY_CODE":"US","ELEMENT_SET_NO":"999","PERIAPSIS":"546.197","SITE":"AFETR","PERIOD":"95.591","ECCENTRICITY":"0.00014090","MEAN_ELEMENT_THEORY":"SGP4","TLE_LINE2":"2 48598  53.0521 153.3404 0001409  88.4446 271.6704 15.06413158107997","TIME_SYSTEM":"UTC","APOAPSIS":"548.149","OBJECT_NAME":"STARLINK-2256","LAUNCH_DATE":"2021-05-15","CENTER_NAME":"EARTH"}];
